{
  "type": "FeatureCollection",
  "features": [
    {
      "type": "Feature",
      "properties": {
        "norad_id": 41890,
        "name": "CYGFM07",
        "group": "weather",
        "lat": 3.2502563595556277,
        "lon": 117.27592494437498,
        "alt_km": 418.94922389830026,
        "timestamp": "2025-12-24T20:42:20.661928+00:00",
        "meta_object_name": "CYGFM07",
        "meta_object_id": "2016-078G",
        "meta_epoch": "2025-12-24T04:30:16.863552",
        "meta_mean_motion": 15.50478038,
        "meta_eccentricity": 0.00095557,
        "meta_inclination": 34.948,
        "meta_ra_of_asc_node": 306.3693,
        "meta_arg_of_pericenter": 312.2172,
        "meta_mean_anomaly": 47.7739,
        "meta_ephemeris_type": 0,
        "meta_classification_type": "U",
        "meta_norad_cat_id": 41890,
        "meta_element_set_no": 999,
        "meta_rev_at_epoch": 50173,
        "meta_bstar": 0.00041713865,
        "meta_mean_motion_dot": 0.00024601,
        "meta_mean_motion_ddot": 0,
        "tle_line1": "1 41890U 16078G   25358.18769518  .00024601  00000+0  41714-3 0  9994",
        "tle_line2": "2 41890  34.9480 306.3693 0009555 312.2172  47.7739 15.50478038501738"
      },
      "geometry": {
        "type": "Point",
        "coordinates": [
          117.27592494437498,
          3.2502563595556277
        ]
      }
    },
    {
      "type": "Feature",
      "properties": {
        "norad_id": 41891,
        "name": "CYGFM03",
        "group": "weather",
        "lat": 2.599626301828124,
        "lon": -52.40479942855479,
        "alt_km": 410.78529899430305,
        "timestamp": "2025-12-24T20:42:20.661938+00:00",
        "meta_object_name": "CYGFM03",
        "meta_object_id": "2016-078H",
        "meta_epoch": "2025-12-24T05:13:56.561664",
        "meta_mean_motion": 15.50374029,
        "meta_eccentricity": 0.00093426,
        "meta_inclination": 34.9436,
        "meta_ra_of_asc_node": 308.0966,
        "meta_arg_of_pericenter": 299.8769,
        "meta_mean_anomaly": 60.1025,
        "meta_ephemeris_type": 0,
        "meta_classification_type": "U",
        "meta_norad_cat_id": 41891,
        "meta_element_set_no": 999,
        "meta_rev_at_epoch": 50171,
        "meta_bstar": 0.00040581852,
        "meta_mean_motion_dot": 0.00023839,
        "meta_mean_motion_ddot": 0,
        "tle_line1": "1 41891U 16078H   25358.21801576  .00023839  00000+0  40582-3 0  9994",
        "tle_line2": "2 41891  34.9436 308.0966 0009342 299.8769  60.1025 15.50374029501718"
      },
      "geometry": {
        "type": "Point",
        "coordinates": [
          -52.40479942855479,
          2.599626301828124
        ]
      }
    },
    {
      "type": "Feature",
      "properties": {
        "norad_id": 43010,
        "name": "FENGYUN 3D",
        "group": "weather",
        "lat": 11.765779941907633,
        "lon": -36.53482979461027,
        "alt_km": 828.4170493532365,
        "timestamp": "2025-12-24T20:42:20.661948+00:00",
        "meta_object_name": "FENGYUN 3D",
        "meta_object_id": "2017-072A",
        "meta_epoch": "2025-12-24T07:07:05.208384",
        "meta_mean_motion": 14.19688038,
        "meta_eccentricity": 0.00014834,
        "meta_inclination": 98.9911,
        "meta_ra_of_asc_node": 324.7803,
        "meta_arg_of_pericenter": 148.7998,
        "meta_mean_anomaly": 211.3266,
        "meta_ephemeris_type": 0,
        "meta_classification_type": "U",
        "meta_norad_cat_id": 43010,
        "meta_element_set_no": 999,
        "meta_rev_at_epoch": 42017,
        "meta_bstar": 0.00014400673,
        "meta_mean_motion_dot": 2.58e-06,
        "meta_mean_motion_ddot": 0,
        "tle_line1": "1 43010U 17072A   25358.29658806  .00000258  00000+0  14401-3 0  9999",
        "tle_line2": "2 43010  98.9911 324.7803 0001483 148.7998 211.3266 14.19688038420179"
      },
      "geometry": {
        "type": "Point",
        "coordinates": [
          -36.53482979461027,
          11.765779941907633
        ]
      }
    },
    {
      "type": "Feature",
      "properties": {
        "norad_id": 43013,
        "name": "NOAA 20 (JPSS-1)",
        "group": "weather",
        "lat": 22.371314207511443,
        "lon": 118.66684201800932,
        "alt_km": 826.5252752999922,
        "timestamp": "2025-12-24T20:42:20.661959+00:00",
        "meta_object_name": "NOAA 20 (JPSS-1)",
        "meta_object_id": "2017-073A",
        "meta_epoch": "2025-12-24T04:44:33.826272",
        "meta_mean_motion": 14.19528703,
        "meta_eccentricity": 0.00020844,
        "meta_inclination": 98.7614,
        "meta_ra_of_asc_node": 294.3698,
        "meta_arg_of_pericenter": 70.8267,
        "meta_mean_anomaly": 289.3134,
        "meta_ephemeris_type": 0,
        "meta_classification_type": "U",
        "meta_norad_cat_id": 43013,
        "meta_element_set_no": 999,
        "meta_rev_at_epoch": 41964,
        "meta_bstar": 6.576462e-05,
        "meta_mean_motion_dot": 9.5e-07,
        "meta_mean_motion_ddot": 0,
        "tle_line1": "1 43013U 17073A   25358.19761373  .00000095  00000+0  65765-4 0  9995",
        "tle_line2": "2 43013  98.7614 294.3698 0002084  70.8267 289.3134 14.19528703419647"
      },
      "geometry": {
        "type": "Point",
        "coordinates": [
          118.66684201800932,
          22.371314207511443
        ]
      }
    },
    {
      "type": "Feature",
      "properties": {
        "norad_id": 43226,
        "name": "GOES 17",
        "group": "weather",
        "lat": -0.36632348009665255,
        "lon": -45.26928524029057,
        "alt_km": 35775.41028979631,
        "timestamp": "2025-12-24T20:42:20.661971+00:00",
        "meta_object_name": "GOES 17",
        "meta_object_id": "2018-022A",
        "meta_epoch": "2025-12-24T04:38:38.567616",
        "meta_mean_motion": 1.00272299,
        "meta_eccentricity": 0.00030522,
        "meta_inclination": 0.4854,
        "meta_ra_of_asc_node": 89.0672,
        "meta_arg_of_pericenter": 190.8801,
        "meta_mean_anomaly": 153.184,
        "meta_ephemeris_type": 0,
        "meta_classification_type": "U",
        "meta_norad_cat_id": 43226,
        "meta_element_set_no": 999,
        "meta_rev_at_epoch": 2866,
        "meta_bstar": 0,
        "meta_mean_motion_dot": -1.62e-06,
        "meta_mean_motion_ddot": 0,
        "tle_line1": "1 43226U 18022A   25358.19350194 -.00000162  00000+0  00000+0 0  9993",
        "tle_line2": "2 43226   0.4854  89.0672 0003052 190.8801 153.1840  1.00272299 28665"
      },
      "geometry": {
        "type": "Point",
        "coordinates": [
          -45.26928524029057,
          -0.36632348009665255
        ]
      }
    },
    {
      "type": "Feature",
      "properties": {
        "norad_id": 43491,
        "name": "FENGYUN 2H",
        "group": "weather",
        "lat": 1.7575954482674323,
        "lon": 123.50053620771553,
        "alt_km": 35791.842523098545,
        "timestamp": "2025-12-24T20:42:20.661984+00:00",
        "meta_object_name": "FENGYUN 2H",
        "meta_object_id": "2018-050A",
        "meta_epoch": "2025-12-23T23:46:50.748960",
        "meta_mean_motion": 1.00270747,
        "meta_eccentricity": 0.00023794,
        "meta_inclination": 2.5781,
        "meta_ra_of_asc_node": 81.2114,
        "meta_arg_of_pericenter": 166.455,
        "meta_mean_anomaly": 281.1598,
        "meta_ephemeris_type": 0,
        "meta_classification_type": "U",
        "meta_norad_cat_id": 43491,
        "meta_element_set_no": 999,
        "meta_rev_at_epoch": 2768,
        "meta_bstar": 0,
        "meta_mean_motion_dot": -1.1e-06,
        "meta_mean_motion_ddot": 0,
        "tle_line1": "1 43491U 18050A   25357.99086515 -.00000110  00000+0  00000+0 0  9991",
        "tle_line2": "2 43491   2.5781  81.2114 0002379 166.4550 281.1598  1.00270747 27686"
      },
      "geometry": {
        "type": "Point",
        "coordinates": [
          123.50053620771553,
          1.7575954482674323
        ]
      }
    },
    {
      "type": "Feature",
      "properties": {
        "norad_id": 43689,
        "name": "METOP-C",
        "group": "weather",
        "lat": 23.172778681627644,
        "lon": 52.691422407006705,
        "alt_km": 819.3367605296635,
        "timestamp": "2025-12-24T20:42:20.662006+00:00",
        "meta_object_name": "METOP-C",
        "meta_object_id": "2018-087A",
        "meta_epoch": "2025-12-24T05:23:30.557472",
        "meta_mean_motion": 14.21488649,
        "meta_eccentricity": 6.8e-05,
        "meta_inclination": 98.6913,
        "meta_ra_of_asc_node": 55.8174,
        "meta_arg_of_pericenter": 18.0942,
        "meta_mean_anomaly": 342.0259,
        "meta_ephemeris_type": 0,
        "meta_classification_type": "U",
        "meta_norad_cat_id": 43689,
        "meta_element_set_no": 999,
        "meta_rev_at_epoch": 36997,
        "meta_bstar": 7.7479551e-05,
        "meta_mean_motion_dot": 1.26e-06,
        "meta_mean_motion_ddot": 0,
        "tle_line1": "1 43689U 18087A   25358.22465923  .00000126  00000+0  77480-4 0  9998",
        "tle_line2": "2 43689  98.6913  55.8174 0000680  18.0942 342.0259 14.21488649369972"
      },
      "geometry": {
        "type": "Point",
        "coordinates": [
          52.691422407006705,
          23.172778681627644
        ]
      }
    }
  ]
}